[{"OBJECT_NAME":"NETSAT-3","OBJECT_ID":"2020-068V","EPOCH":"2026-03-09T21:45:04.914432","MEAN_MOTION":15.39054188,"ECCENTRICITY":0.00049805,"INCLINATION":97.8682,"RA_OF_ASC_NODE":67.7818,"ARG_OF_PERICENTER":358.0585,"MEAN_ANOMALY":2.0638,"EPHEMERIS_TYPE":0,"CLASSIFICATION_TYPE":"U","NORAD_CAT_ID":46505,"ELEMENT_SET_NO":999,"REV_AT_EPOCH":30039,"BSTAR":0.00060371861,"MEAN_MOTION_DOT":0.00023315,"MEAN_MOTION_DDOT":0},{"OBJECT_NAME":"OBJECT AS","OBJECT_ID":"2024-199AS","EPOCH":"2026-03-09T22:02:20.934240","MEAN_MOTION":15.4118193,"ECCENTRICITY":0.00141686,"INCLINATION":97.3146,"RA_OF_ASC_NODE":300.9729,"ARG_OF_PERICENTER":280.4817,"MEAN_ANOMALY":79.4833,"EPHEMERIS_TYPE":0,"CLASSIFICATION_TYPE":"U","NORAD_CAT_ID":61775,"ELEMENT_SET_NO":999,"REV_AT_EPOCH":11886,"BSTAR":0.0004768324,"MEAN_MOTION_DOT":0.00019789,"MEAN_MOTION_DDOT":0}]
