NETSAT-3
1 46505U 20068V   26068.90630688  .00023315  00000-0  60372-3 0  9993
2 46505  97.8682  67.7818 0004980 358.0585   2.0638 15.39054188300392
CSTP-2.2
1 61775U 24199AS  26068.91829785  .00019789  00000-0  47683-3 0  9997
2 61775  97.3146 300.9729 0014169 280.4817  79.4833 15.41181930118860
